{"type": "FeatureCollection", "features": [ {"type": "Feature", "properties": {"norad_id": 41836, "name": "HIMAWARI-9", "group": "weather", "lat": 0.02193968078024382, "lon": 124.26378210732736, "alt_km": 35790.39591245952, "timestamp": "2025-12-08T17:43:04.535854+00:00", "meta": {"OBJECT_NAME": "HIMAWARI-9", "OBJECT_ID": "2016-064A", "EPOCH": "2025-12-08T07:25:27.755328", "MEAN_MOTION": 1.00270838, "ECCENTRICITY": 0.00012704, "INCLINATION": 0.0159, "RA_OF_ASC_NODE": 56.3377, "ARG_OF_PERICENTER": 206.0457, "MEAN_ANOMALY": 67.0701, "EPHEMERIS_TYPE": 0, "CLASSIFICATION_TYPE": "U", "NORAD_CAT_ID": 41836, "ELEMENT_SET_NO": 999, "REV_AT_EPOCH": 3329, "BSTAR": 0, "MEAN_MOTION_DOT": -2.72e-06, "MEAN_MOTION_DDOT": 0}, "tle": {"line1": "1 41836U 16064A   25342.30934902 -.00000272  00000+0  00000+0 0  9995", "line2": "2 41836   0.0159  56.3377 0001270 206.0457  67.0701  1.00270838 33291"}}, "geometry": {"type": "Point", "coordinates": [124.26378210732736, 0.02193968078024382]}}, {"type": "Feature", "properties": {"norad_id": 41866, "name": "GOES 16", "group": "weather", "lat": 0.021320508007735422, "lon": -121.18087854304618, "alt_km": 35772.82171362107, "timestamp": "2025-12-08T17:43:04.535867+00:00", "meta": {"OBJECT_NAME": "GOES 16", "OBJECT_ID": "2016-071A", "EPOCH": "2025-12-08T05:58:23.735712", "MEAN_MOTION": 1.00270815, "ECCENTRICITY": 0.00034436, "INCLINATION": 0.0673, "RA_OF_ASC_NODE": 103.7901, "ARG_OF_PERICENTER": 156.9205, "MEAN_ANOMALY": 161.4769, "EPHEMERIS_TYPE": 0, "CLASSIFICATION_TYPE": "U", "NORAD_CAT_ID": 41866, "ELEMENT_SET_NO": 999, "REV_AT_EPOCH": 3318, "BSTAR": 0, "MEAN_MOTION_DOT": -8.8e-07, "MEAN_MOTION_DDOT": 0}, "tle": {"line1": "1 41866U 16071A   25342.24888583 -.00000088  00000+0  00000+0 0  9997", "line2": "2 41866   0.0673 103.7901 0003443 156.9205 161.4769  1.00270815 33189"}}, "geometry": {"type": "Point", "coordinates": [-121.18087854304618, 0.021320508007735422]}}, {"type": "Feature", "properties": {"norad_id": 41882, "name": "FENGYUN 4A", "group": "weather", "lat": 0.7920046669588855, "lon": 107.27937369574151, "alt_km": 35794.87764599414, "timestamp": "2025-12-08T17:43:04.535880+00:00", "meta": {"OBJECT_NAME": "FENGYUN 4A", "OBJECT_ID": "2016-077A", "EPOCH": "2025-12-08T07:20:43.209024", "MEAN_MOTION": 1.00275623, "ECCENTRICITY": 0.00049566, "INCLINATION": 1.8378, "RA_OF_ASC_NODE": 82.4352, "ARG_OF_PERICENTER": 142.8744, "MEAN_ANOMALY": 86.0131, "EPHEMERIS_TYPE": 0, "CLASSIFICATION_TYPE": "U", "NORAD_CAT_ID": 41882, "ELEMENT_SET_NO": 999, "REV_AT_EPOCH": 3301, "BSTAR": 0, "MEAN_MOTION_DOT": -3.54e-06, "MEAN_MOTION_DDOT": 0}, "tle": {"line1": "1 41882U 16077A   25342.30605566 -.00000354  00000+0  00000+0 0  9992", "line2": "2 41882   1.8378  82.4352 0004956 142.8744  86.0131  1.00275623 33012"}}, "geometry": {"type": "Point", "coordinates": [107.27937369574151, 0.7920046669588855]}}, {"type": "Feature", "properties": {"norad_id": 41884, "name": "CYGFM05", "group": "weather", "lat": -4.5957116403113965, "lon": 66.65886739807368, "alt_km": 429.6030394733307, "timestamp": "2025-12-08T17:43:04.535892+00:00", "meta": {"OBJECT_NAME": "CYGFM05", "OBJECT_ID": "2016-078A", "EPOCH": "2025-12-07T23:10:19.179264", "MEAN_MOTION": 15.47374396, "ECCENTRICITY": 0.00095772, "INCLINATION": 34.9599, "RA_OF_ASC_NODE": 78.3112, "ARG_OF_PERICENTER": 138.5672, "MEAN_ANOMALY": 221.5777, "EPHEMERIS_TYPE": 0, "CLASSIFICATION_TYPE": "U", "NORAD_CAT_ID": 41884, "ELEMENT_SET_NO": 999, "REV_AT_EPOCH": 49902, "BSTAR": 0.00046085442, "MEAN_MOTION_DOT": 0.00024362, "MEAN_MOTION_DDOT": 0}, "tle": {"line1": "1 41884U 16078A   25341.96549976  .00024362  00000+0  46085-3 0  9999", "line2": "2 41884  34.9599  78.3112 0009577 138.5672 221.5777 15.47374396499022"}}, "geometry": {"type": "Point", "coordinates": [66.65886739807368, -4.5957116403113965]}}, {"type": "Feature", "properties": {"norad_id": 41885, "name": "CYGFM04", "group": "weather", "lat": -7.036540437070389, "lon": -121.65765132545826, "alt_km": 410.4103017837879, "timestamp": "2025-12-08T17:43:04.535903+00:00", "meta": {"OBJECT_NAME": "CYGFM04", "OBJECT_ID": "2016-078B", "EPOCH": "2025-12-08T06:04:23.043936", "MEAN_MOTION": 15.50078368, "ECCENTRICITY": 0.00088902, "INCLINATION": 34.9352, "RA_OF_ASC_NODE": 51.3392, "ARG_OF_PERICENTER": 170.5496, "MEAN_ANOMALY": 189.5394, "EPHEMERIS_TYPE": 0, "CLASSIFICATION_TYPE": "U", "NORAD_CAT_ID": 41885, "ELEMENT_SET_NO": 999, "REV_AT_EPOCH": 49924, "BSTAR": 0.00046308863, "MEAN_MOTION_DOT": 0.00026931, "MEAN_MOTION_DDOT": 0}, "tle": {"line1": "1 41885U 16078B   25342.25304449  .00026931  00000+0  46309-3 0  9990", "line2": "2 41885  34.9352  51.3392 0008890 170.5496 189.5394 15.50078368499244"}}, "geometry": {"type": "Point", "coordinates": [-121.65765132545826, -7.036540437070389]}}, {"type": "Feature", "properties": {"norad_id": 41886, "name": "CYGFM02", "group": "weather", "lat": -3.19066634579602, "lon": -128.88637084668238, "alt_km": 404.67440721095227, "timestamp": "2025-12-08T17:43:04.535914+00:00", "meta": {"OBJECT_NAME": "CYGFM02", "OBJECT_ID": "2016-078C", "EPOCH": "2025-12-08T06:06:44.572320", "MEAN_MOTION": 15.51438875, "ECCENTRICITY": 0.0010617, "INCLINATION": 34.944, "RA_OF_ASC_NODE": 49.712, "ARG_OF_PERICENTER": 169.7081, "MEAN_ANOMALY": 190.386, "EPHEMERIS_TYPE": 0, "CLASSIFICATION_TYPE": "U", "NORAD_CAT_ID": 41886, "ELEMENT_SET_NO": 999, "REV_AT_EPOCH": 49937, "BSTAR": 0.00046558809, "MEAN_MOTION_DOT": 0.00028452, "MEAN_MOTION_DDOT": 0}, "tle": {"line1": "1 41886U 16078C   25342.25468255  .00028452  00000+0  46559-3 0  9994", "line2": "2 41886  34.9440  49.7120 0010617 169.7081 190.3860 15.51438875499379"}}, "geometry": {"type": "Point", "coordinates": [-128.88637084668238, -3.19066634579602]}}, {"type": "Feature", "properties": {"norad_id": 41887, "name": "CYGFM01", "group": "weather", "lat": 15.477743505657138, "lon": 99.00829019680603, "alt_km": 421.35337627778426, "timestamp": "2025-12-08T17:43:04.535925+00:00", "meta": {"OBJECT_NAME": "CYGFM01", "OBJECT_ID": "2016-078D", "EPOCH": "2025-12-07T23:01:28.894080", "MEAN_MOTION": 15.47944929, "ECCENTRICITY": 0.00091549, "INCLINATION": 34.9429, "RA_OF_ASC_NODE": 80.7346, "ARG_OF_PERICENTER": 129.9517, "MEAN_ANOMALY": 230.201, "EPHEMERIS_TYPE": 0, "CLASSIFICATION_TYPE": "U", "NORAD_CAT_ID": 41887, "ELEMENT_SET_NO": 999, "REV_AT_EPOCH": 49896, "BSTAR": 0.00045831873, "MEAN_MOTION_DOT": 0.00024714, "MEAN_MOTION_DDOT": 0}, "tle": {"line1": "1 41887U 16078D   25341.95936220  .00024714  00000+0  45832-3 0  9993", "line2": "2 41887  34.9429  80.7346 0009154 129.9517 230.2010 15.47944929498960"}}, "geometry": {"type": "Point", "coordinates": [99.00829019680603, 15.477743505657138]}}, {"type": "Feature", "properties": {"norad_id": 41888, "name": "CYGFM08", "group": "weather", "lat": 29.33967936960333, "lon": 112.28398711900087, "alt_km": 415.3629322197321, "timestamp": "2025-12-08T17:43:04.535936+00:00", "meta": {"OBJECT_NAME": "CYGFM08", "OBJECT_ID": "2016-078E", "EPOCH": "2025-12-08T06:38:19.176576", "MEAN_MOTION": 15.49152945, "ECCENTRICITY": 0.00110495, "INCLINATION": 34.9461, "RA_OF_ASC_NODE": 61.7039, "ARG_OF_PERICENTER": 158.3176, "MEAN_ANOMALY": 201.8015, "EPHEMERIS_TYPE": 0, "CLASSIFICATION_TYPE": "U", "NORAD_CAT_ID": 41888, "ELEMENT_SET_NO": 999, "REV_AT_EPOCH": 49924, "BSTAR": 0.00046317331, "MEAN_MOTION_DOT": 0.00026086, "MEAN_MOTION_DDOT": 0}, "tle": {"line1": "1 41888U 16078E   25342.27661084  .00026086  00000+0  46317-3 0  9996", "line2": "2 41888  34.9461  61.7039 0011049 158.3176 201.8015 15.49152945499240"}}, "geometry": {"type": "Point", "coordinates": [112.28398711900087, 29.33967936960333]}}, {"type": "Feature", "properties": {"norad_id": 41890, "name": "CYGFM07", "group": "weather", "lat": 20.75567793361311, "lon": 80.55073952856598, "alt_km": 418.31740189596803, "timestamp": "2025-12-08T17:43:04.535948+00:00", "meta": {"OBJECT_NAME": "CYGFM07", "OBJECT_ID": "2016-078G", "EPOCH": "2025-12-08T05:11:06.910080", "MEAN_MOTION": 15.49725708, "ECCENTRICITY": 0.00094356, "INCLINATION": 34.9479, "RA_OF_ASC_NODE": 51.1071, "ARG_OF_PERICENTER": 175.2415, "MEAN_ANOMALY": 184.8398, "EPHEMERIS_TYPE": 0, "CLASSIFICATION_TYPE": "U", "NORAD_CAT_ID": 41890, "ELEMENT_SET_NO": 999, "REV_AT_EPOCH": 49925, "BSTAR": 0.00045384575, "MEAN_MOTION_DOT": 0.00026066, "MEAN_MOTION_DDOT": 0}, "tle": {"line1": "1 41890U 16078G   25342.21605220  .00026066  00000+0  45385-3 0  9995", "line2": "2 41890  34.9479  51.1071 0009435 175.2415 184.8398 15.49725708499259"}}, "geometry": {"type": "Point", "coordinates": [80.55073952856598, 20.75567793361311]}}, {"type": "Feature", "properties": {"norad_id": 41891, "name": "CYGFM03", "group": "weather", "lat": -27.835258359129206, "lon": -81.26695366666604, "alt_km": 417.0804295152284, "timestamp": "2025-12-08T17:43:04.535959+00:00", "meta": {"OBJECT_NAME": "CYGFM03", "OBJECT_ID": "2016-078H", "EPOCH": "2025-12-08T05:53:17.704320", "MEAN_MOTION": 15.49628768, "ECCENTRICITY": 0.00087415, "INCLINATION": 34.9435, "RA_OF_ASC_NODE": 52.8305, "ARG_OF_PERICENTER": 163.0151, "MEAN_ANOMALY": 197.0865, "EPHEMERIS_TYPE": 0, "CLASSIFICATION_TYPE": "U", "NORAD_CAT_ID": 41891, "ELEMENT_SET_NO": 999, "REV_AT_EPOCH": 49923, "BSTAR": 0.00045289124, "MEAN_MOTION_DOT": 0.00025915, "MEAN_MOTION_DDOT": 0}, "tle": {"line1": "1 41891U 16078H   25342.24534380  .00025915  00000+0  45289-3 0  9992", "line2": "2 41891  34.9435  52.8305 0008741 163.0151 197.0865 15.49628768499232"}}, "geometry": {"type": "Point", "coordinates": [-81.26695366666604, -27.835258359129206]}}]}